{
  "norad_id": 57968,
  "name": "STARLINK-30495",
  "history": [
    {
      "epoch": "2026-03-28T18:22:30.856224Z",
      "apogee_km": 483.4114409841104,
      "perigee_km": 482.77595379691775,
      "latitude_deg": 2.6180383961945548e-05,
      "longitude_deg": 126.47928024072593,
      "height_km": 482.88426016797155,
      "semi_major_axis_km": 6861.230697390513,
      "eccentricity": 4.631e-05,
      "inclination_deg": 43.0024,
      "raan_deg": 228.2892,
      "arg_perigee_deg": 267.3964,
      "mean_anomaly_deg": 92.6835,
      "mean_motion_rev_day": 15.27565105
    },
    {
      "epoch": "2026-03-29T02:13:17.079456Z",
      "apogee_km": 483.8464373876859,
      "perigee_km": 482.24092110874153,
      "latitude_deg": -1.928981839520944e-05,
      "longitude_deg": 6.616904030193481,
      "height_km": 482.60916357478624,
      "semi_major_axis_km": 6861.180679248214,
      "eccentricity": 0.000117,
      "inclination_deg": 43.004,
      "raan_deg": 226.4417,
      "arg_perigee_deg": 285.2733,
      "mean_anomaly_deg": 74.7989,
      "mean_motion_rev_day": 15.27581809
    },
    {
      "epoch": "2026-03-30T01:45:38.245248Z",
      "apogee_km": 484.0057018568468,
      "perigee_km": 482.1039167111503,
      "latitude_deg": 5.48385491569855e-05,
      "longitude_deg": 7.02417170729119,
      "height_km": 482.70523240171764,
      "semi_major_axis_km": 6861.191809283999,
      "eccentricity": 0.00013859,
      "inclination_deg": 43.002,
      "raan_deg": 220.9038,
      "arg_perigee_deg": 277.6444,
      "mean_anomaly_deg": 82.4251,
      "mean_motion_rev_day": 15.27578092
    },
    {
      "epoch": "2026-03-30T08:02:16.169568Z",
      "apogee_km": 483.7201428131939,
      "perigee_km": 482.42241387942795,
      "latitude_deg": 4.447925690035922e-05,
      "longitude_deg": -88.8693525290092,
      "height_km": 482.71961453671184,
      "semi_major_axis_km": 6861.208278346311,
      "eccentricity": 9.457e-05,
      "inclination_deg": 43.0013,
      "raan_deg": 219.4261,
      "arg_perigee_deg": 281.3878,
      "mean_anomaly_deg": 78.6868,
      "mean_motion_rev_day": 15.27572592
    },
    {
      "epoch": "2026-03-30T17:27:12.295296Z",
      "apogee_km": 483.8104417820314,
      "perigee_km": 482.30715378273817,
      "latitude_deg": -1.5678567917994964e-05,
      "longitude_deg": 127.29494201114011,
      "height_km": 482.73232833126525,
      "semi_major_axis_km": 6861.195797782385,
      "eccentricity": 0.00010955,
      "inclination_deg": 43.0004,
      "raan_deg": 217.211,
      "arg_perigee_deg": 277.8735,
      "mean_anomaly_deg": 82.1992,
      "mean_motion_rev_day": 15.2757676
    },
    {
      "epoch": "2026-03-31T15:25:23.256192Z",
      "apogee_km": 483.9732106964493,
      "perigee_km": 482.100110287136,
      "latitude_deg": -3.9363995345554075e-05,
      "longitude_deg": 151.67698358506962,
      "height_km": 482.547492376261,
      "semi_major_axis_km": 6861.173660491792,
      "eccentricity": 0.0001365,
      "inclination_deg": 43.0006,
      "raan_deg": 212.041,
      "arg_perigee_deg": 286.4941,
      "mean_anomaly_deg": 73.576,
      "mean_motion_rev_day": 15.27584153
    },
    {
      "epoch": "2026-04-01T14:57:45.007776Z",
      "apogee_km": 483.8115411669005,
      "perigee_km": 482.3130552401726,
      "latitude_deg": -1.574879547534466e-05,
      "longitude_deg": 152.08025064246362,
      "height_km": 482.5790863212425,
      "semi_major_axis_km": 6861.199298203536,
      "eccentricity": 0.0001092,
      "inclination_deg": 43.003,
      "raan_deg": 206.5016,
      "arg_perigee_deg": 290.3022,
      "mean_anomaly_deg": 69.7712,
      "mean_motion_rev_day": 15.27575591
    },
    {
      "epoch": "2026-04-02T14:30:04.102560Z",
      "apogee_km": 484.0196539977014,
      "perigee_km": 481.96735264154813,
      "latitude_deg": 1.9437763966838593e-05,
      "longitude_deg": 152.49522996024132,
      "height_km": 482.45086316448817,
      "semi_major_axis_km": 6861.130503319624,
      "eccentricity": 0.00014956,
      "inclination_deg": 43.0021,
      "raan_deg": 200.9628,
      "arg_perigee_deg": 288.149,
      "mean_anomaly_deg": 71.9199,
      "mean_motion_rev_day": 15.27598566
    },
    {
      "epoch": "2026-04-03T15:36:35.949312Z",
      "apogee_km": 483.99499907573136,
      "perigee_km": 482.18089120023797,
      "latitude_deg": 3.550225714128944e-05,
      "longitude_deg": 128.9244688415039,
      "height_km": 482.9252356065815,
      "semi_major_axis_km": 6861.224945137985,
      "eccentricity": 0.0001322,
      "inclination_deg": 43.0021,
      "raan_deg": 195.0559,
      "arg_perigee_deg": 266.1798,
      "mean_anomaly_deg": 93.8903,
      "mean_motion_rev_day": 15.27567026
    },
    {
      "epoch": "2026-04-04T13:34:46.331328Z",
      "apogee_km": 483.34792233763983,
      "perigee_km": 482.65631951425075,
      "latitude_deg": -1.646057742987353e-05,
      "longitude_deg": 153.30819708387276,
      "height_km": 482.8529522549497,
      "semi_major_axis_km": 6861.1391209259455,
      "eccentricity": 5.04e-05,
      "inclination_deg": 43.0004,
      "raan_deg": 189.8852,
      "arg_perigee_deg": 257.4901,
      "mean_anomaly_deg": 102.5894,
      "mean_motion_rev_day": 15.27595688
    },
    {
      "epoch": "2026-04-05T14:41:19.188960Z",
      "apogee_km": 484.3987157166166,
      "perigee_km": 481.8476991714897,
      "latitude_deg": -1.2300095616866195e-05,
      "longitude_deg": 129.73119800430257,
      "height_km": 482.6095640918372,
      "semi_major_axis_km": 6861.260207444053,
      "eccentricity": 0.0001859,
      "inclination_deg": 43.0033,
      "raan_deg": 183.9763,
      "arg_perigee_deg": 283.1918,
      "mean_anomaly_deg": 76.8726,
      "mean_motion_rev_day": 15.2755525
    },
    {
      "epoch": "2026-04-06T06:22:52.139136Z",
      "apogee_km": 483.90369034095875,
      "perigee_km": 482.16410907104637,
      "latitude_deg": 2.9379585593123808e-05,
      "longitude_deg": -109.99321881016954,
      "height_km": 482.47425912758297,
      "semi_major_axis_km": 6861.170899706002,
      "eccentricity": 0.00012677,
      "inclination_deg": 43.0008,
      "raan_deg": 180.2836,
      "arg_perigee_deg": 292.7445,
      "mean_anomaly_deg": 67.3273,
      "mean_motion_rev_day": 15.27585075
    },
    {
      "epoch": "2026-04-07T13:45:59.319936Z",
      "apogee_km": 483.88040961826937,
      "perigee_km": 482.2241185299208,
      "latitude_deg": 9.023237375053313e-07,
      "longitude_deg": 130.54937769767997,
      "height_km": 482.57441585035394,
      "semi_major_axis_km": 6861.189264074094,
      "eccentricity": 0.0001207,
      "inclination_deg": 43.0031,
      "raan_deg": 172.8951,
      "arg_perigee_deg": 287.9133,
      "mean_anomaly_deg": 72.1587,
      "mean_motion_rev_day": 15.27578942
    },
    {
      "epoch": "2026-04-07T13:45:59.320800Z",
      "apogee_km": 483.8802037825908,
      "perigee_km": 482.2243243655985,
      "latitude_deg": -1.3430254853261514e-06,
      "longitude_deg": 130.5493716935461,
      "height_km": 482.57447915177954,
      "semi_major_axis_km": 6861.189264074094,
      "eccentricity": 0.00012067,
      "inclination_deg": 43.0031,
      "raan_deg": 172.8951,
      "arg_perigee_deg": 287.9133,
      "mean_anomaly_deg": 72.1587,
      "mean_motion_rev_day": 15.27578942
    },
    {
      "epoch": "2026-04-08T11:44:10.793184Z",
      "apogee_km": 483.6215345194487,
      "perigee_km": 482.43661113867165,
      "latitude_deg": -4.4967745365647335e-05,
      "longitude_deg": 154.93245099198137,
      "height_km": 482.6190560369825,
      "semi_major_axis_km": 6861.16607282906,
      "eccentricity": 8.635e-05,
      "inclination_deg": 43.0013,
      "raan_deg": 167.7283,
      "arg_perigee_deg": 288.3369,
      "mean_anomaly_deg": 71.7388,
      "mean_motion_rev_day": 15.27586687
    },
    {
      "epoch": "2026-04-09T20:41:27.453120Z",
      "apogee_km": 483.7411392658887,
      "perigee_km": 482.34008679730687,
      "latitude_deg": -4.6945923267552016e-05,
      "longitude_deg": 11.505129924469971,
      "height_km": 482.68485019028566,
      "semi_major_axis_km": 6861.1776130315975,
      "eccentricity": 0.0001021,
      "inclination_deg": 43.0006,
      "raan_deg": 159.9738,
      "arg_perigee_deg": 280.8791,
      "mean_anomaly_deg": 79.1945,
      "mean_motion_rev_day": 15.27582833
    },
    {
      "epoch": "2026-04-10T04:32:14.753760Z",
      "apogee_km": 483.85158910643804,
      "perigee_km": 482.28503870916666,
      "latitude_deg": -3.1234682566582214e-05,
      "longitude_deg": -108.36048334421588,
      "height_km": 482.76442666506887,
      "semi_major_axis_km": 6861.205313907802,
      "eccentricity": 0.00011416,
      "inclination_deg": 43.0003,
      "raan_deg": 158.1275,
      "arg_perigee_deg": 275.8926,
      "mean_anomaly_deg": 84.1795,
      "mean_motion_rev_day": 15.27573582
    },
    {
      "epoch": "2026-04-11T19:46:09.490080Z",
      "apogee_km": 483.85642810030276,
      "perigee_km": 482.2618861133924,
      "latitude_deg": 3.608731015776146e-05,
      "longitude_deg": 12.3186215351246,
      "height_km": 482.8163099276757,
      "semi_major_axis_km": 6861.196157106848,
      "eccentricity": 0.0001162,
      "inclination_deg": 43.0,
      "raan_deg": 148.8958,
      "arg_perigee_deg": 271.3905,
      "mean_anomaly_deg": 88.6814,
      "mean_motion_rev_day": 15.2757664
    },
    {
      "epoch": "2026-04-13T03:09:17.261856Z",
      "apogee_km": 483.90497199589663,
      "perigee_km": 482.23920765306775,
      "latitude_deg": -9.513782071467674e-07,
      "longitude_deg": -107.13925743337896,
      "height_km": 482.77602800904907,
      "semi_major_axis_km": 6861.209089824481,
      "eccentricity": 0.00012139,
      "inclination_deg": 43.0005,
      "raan_deg": 141.5093,
      "arg_perigee_deg": 275.0055,
      "mean_anomaly_deg": 85.0658,
      "mean_motion_rev_day": 15.27572321
    }
  ]
}